#aV2008  7 24  0  0   .00000000      96 DD+AD WGS84 FIT  NGA
## 1489 345600.00000000   900.00000000 54671  .0000000000000
+   31     2  3  4  5  6  7  8  9 10 11 12 13 14 15 16 17 18
+         19 20 21 22 23 24 25 26 27 28 29 30 31 32  0  0  0
+          0  0  0  0  0  0  0  0  0  0  0  0  0  0  0  0  0
+          0  0  0  0  0  0  0  0  0  0  0  0  0  0  0  0  0
+          0  0  0  0  0  0  0  0  0  0  0  0  0  0  0  0  0
++         0  0  0  0  0  0  0  0  0  0  0  0  0  0  0  0  0
++         0  0  0  0  0  0  0  0  0  0  0  0  0  0  0  0  0
++         0  0  0  0  0  0  0  0  0  0  0  0  0  0  0  0  0
++         0  0  0  0  0  0  0  0  0  0  0  0  0  0  0  0  0
++         0  0  0  0  0  0  0  0  0  0  0  0  0  0  0  0  0
%c cc cc ccc ccc cccc cccc cccc cccc ccccc ccccc ccccc ccccc
%c cc cc ccc ccc cccc cccc cccc cccc ccccc ccccc ccccc ccccc
%f  0.0000000  0.000000000  0.00000000000  0.000000000000000
%f  0.0000000  0.000000000  0.00000000000  0.000000000000000
%i    0    0    0    0      0      0      0      0         0
%i    0    0    0    0      0      0      0      0         0
/*      NGA, ST. LOUIS,MO.                                  
/*   EPHEMERIS COMPUTED FROM  3 DAYS OF DATA                
/* CCCCCCCCCCCCCCCCCCCCCCCCCCCCCCCCCCCCCCCCCCCCCCCCCCCCCCCCC
/* CCCCCCCCCCCCCCCCCCCCCCCCCCCCCCCCCCCCCCCCCCCCCCCCCCCCCCCCC
*  2008  7 24  9 15   .00000000                                                 
P  2  22994.840133 -12873.921900   -752.184438    199.847201                    
V  2   1191.306033   3600.176098 -31566.456495      -.025727                    
P  3 -11997.230263  14976.605788  17952.265668    260.017434                    
V  3  -4767.623606 -23208.988339  16296.470533       .053121                    
P  4  24087.040926  -4567.490697 -10761.517433   -123.627260                    
V  4 -10402.778393   8898.807629 -26952.116496      -.100091                    
P  5  -6497.762148 -17998.969708 -18758.854844   -339.745036                    
V  5  21741.313105   8371.482932 -15663.667571      -.315373                    
P  6 -14463.291294  10081.750353  20063.782451    163.455671                    
V  6  -2264.474491 -25078.134714  11061.500385       .028683                    
P  7   7306.590501  13277.568442  21780.779840       .018764                    
V  7 -24075.168712  13747.151418   -385.119591       .050759                    
P  8  18721.889723   4304.307998  18468.407846   -163.045542                    
V  8 -20477.217182  11338.954714  17566.171155      -.015907                    
P  9   8426.681569 -19000.357712 -17093.518243      6.728076                    
V  9  18194.125793  -9599.609453  20554.323462       .017133                    
P 10  16614.422315  -5959.940475  19807.218438     -3.177126                    
V 10  21071.126312  14126.400438 -13013.300905      -.003052                    
P 11  -3980.109265  20723.000647 -16098.106020     22.821480                    
V 11 -17672.298969  10993.880747  19043.071915      -.006198                    
P 12  -1163.455426 -16990.330813 -20322.468436   -356.354018                    
V 12  22890.121180  12273.674109 -11427.051211       .008728                    
P 13   6313.194934  23031.818089  11513.677434    265.023089                    
V 13  -2229.560744  14661.371517 -27805.195213       .014667                    
P 14 -13831.722165  -7283.165271 -21390.844534   -240.501997                    
V 14   1351.182599 -27269.791085   8265.883709       .044637                    
P 15   7547.817157 -22946.423055  11052.954518   -148.039672                    
V 15   2661.354720  13986.451599  27281.974017      -.063737                    
P 16 -20337.421795   1556.244340  17188.424514    115.555196                    
V 16 -17698.587715 -12479.544617 -19683.247319      -.017650                    
P 17  14708.671865   6489.801350 -21125.827539     38.743163                    
V 17  -1002.821506  26887.430246   7384.349597       .001141                    
P 18 -18287.086583 -18028.382129   7691.096762   -152.872455                    
V 18   9424.376647   2730.727983  29177.976795       .042858                    
P 19  -8707.693010  22939.802130   9996.596760     33.923501                    
V 19  -1822.036713 -12808.206383  28232.549268       .004641                    
P 20   2902.200998  17791.781385 -19632.974067    109.231825                    
V 20 -22247.140406 -10851.939428 -13168.066696      -.008092                    
P 21 -13388.919456 -10220.521567  20847.672312     56.951777                    
V 21  22566.174021 -12916.599098   7621.337117      -.012873                    
P 22 -23734.157187 -10817.397717  -5027.962199    211.462205                    
V 22  -3829.918678  -6242.086290  30486.859776      -.000775                    
P 23     74.794240  26414.392614    327.839772    365.814670                    
V 23  -2712.987640    483.151497 -32156.227394       .017838                    
P 24   2588.648664 -17398.276465  20142.730209    111.826979                    
V 24  22888.148685 -10509.176729 -11847.716873       .028562                    
P 25    481.498999  17178.005078  20654.639895   -200.113282                    
V 25 -21155.058213  14021.089537 -11190.241328      -.123752                    
P 26  10134.691382 -19456.366637  14078.192498    297.955689                    
V 26    945.201763  18960.030386  25184.194402       .066238                    
P 27  10438.940461  11410.066504  22279.579478    205.009780                    
V 27 -22190.989762  14744.182413   2810.801293       .027247                    
P 28  23640.605956  11957.168955  -3250.793933    -21.317385                    
V 28   2604.879543   4466.256044  31267.028677      -.004480                    
P 29  -5410.995608 -24621.149389   8532.530709    -41.099706                    
V 29   2825.444400 -10603.685437 -29177.053028       .005709                    
P 30 -14568.968482 -18268.393485 -13068.439690     87.525666                    
V 30  15277.621556   5379.896907 -25131.153876       .019843                    
P 31 -24046.678639   6805.912437  -8957.750537    -24.931572                    
V 31   8892.229347  -7819.545963 -29050.684427      -.001190                    
P 32  -5284.419088  14235.702066 -21377.838524    309.246027                    
V 32 -23239.839490 -15854.803820  -4548.514956       .026393                    
EOF
